1 44941U 20001AD  22365.41438953  .00002084  00000-0  15875-3 0  9993
2 44941  53.0541 153.2605 0001504  76.8918 283.2238 15.06406712164644
1 44941U 20001AD  22365.67978108  .00001888  00000-0  14560-3 0  9993
2 44941  53.0541 152.0689 0001495  76.9607 283.1549 15.06400564164685
1 44941U 20001AD  22365.81247425  .00001900  00000-0  14638-3 0  9991
2 44941  53.0542 151.4732 0001475  76.9660 283.1494 15.06401330164709
1 44941U 20001AD  23001.40960212 -.00000109  00000-0  11594-4 0  9990
2 44941  53.0547 148.7930 0001491  77.7115 282.4041 15.06394711164798
1 44941U 20001AD  23001.40960212 -.00000109  00000-0  11594-4 0  9990
2 44941  53.0547 148.7930 0001491  77.7115 282.4041 15.06394711164798
1 44941U 20001AD  23001.67499675 -.00001220  00000-0 -63065-4 0  9995
2 44941  53.0547 147.6018 0001547  76.4669 283.6492 15.06387845164833
1 44941U 20001AD  23001.67499675 -.00001220  00000-0 -63065-4 0  9995
2 44941  53.0547 147.6018 0001547  76.4669 283.6492 15.06387845164833
1 44941U 20001AD  23002.40480597 -.00000589  00000-0 -20685-4 0  9998
2 44941  53.0545 144.3250 0001398  71.0217 289.0923 15.06396219164943
1 44941U 20001AD  23002.40480597 -.00000589  00000-0 -20685-4 0  9998
2 44941  53.0545 144.3250 0001398  71.0217 289.0923 15.06396219164943
1 44941U 20001AD  23002.67018806  .00000212  00000-0  33122-4 0  9998
2 44941  53.0544 143.1340 0001399  69.6441 290.4698 15.06401864164984
1 44941U 20001AD  23002.67018806  .00000212  00000-0  33122-4 0  9998
2 44941  53.0544 143.1340 0001399  69.6441 290.4698 15.06401864164984
1 44941U 20001AD  23003.40000729  .00001787  00000-0  13887-3 0  9998
2 44941  53.0552 139.8585 0001458  71.7861 288.3287 15.06392179165093
1 44941U 20001AD  23003.40000729  .00001787  00000-0  13887-3 0  9998
2 44941  53.0552 139.8585 0001458  71.7861 288.3287 15.06392179165093
1 44941U 20001AD  23004.39521622 -.00000370  00000-0 -59401-5 0  9990
2 44941  53.0555 135.3914 0001472  73.2842 286.8309 15.06395981165244
1 44941U 20001AD  23004.66059342  .00001136  00000-0  95117-4 0  9997
2 44941  53.0554 134.2006 0001506  77.6282 282.4875 15.06406810165285
1 44941U 20001AD  23004.66059342  .00001136  00000-0  95117-4 0  9997
2 44941  53.0554 134.2006 0001506  77.6282 282.4875 15.06406810165285
1 44941U 20001AD  23005.39039766  .00003505  00000-0  25401-3 0  9996
2 44941  53.0552 130.9234 0001436  65.6786 294.4353 15.06413749165392
1 44941U 20001AD  23005.39039766  .00003505  00000-0  25401-3 0  9996
2 44941  53.0552 130.9234 0001436  65.6786 294.4353 15.06413749165392
1 44941U 20001AD  23005.65577722  .00006185  00000-0  43346-3 0  9999
2 44941  53.0537 129.7311 0001280  62.9554 297.1565 15.06426353165432
1 44941U 20001AD  23006.58463966 -.00001138  00000-0 -57526-4 0  9997
2 44941  53.0531 125.5609 0001489  60.9333 299.1805 15.06405731165575
1 44941U 20001AD  23007.31445668 -.00001750  00000-0 -98633-4 0  9992
2 44941  53.0528 122.2849 0001438  63.3821 296.7315 15.06399253165686
1 44941U 20001AD  23007.71254228 -.00003795  00000-0 -23608-3 0  9996
2 44941  53.0552 120.4985 0001421  54.0957 306.0164 15.06393034165748
1 44941U 20001AD  23007.71254228 -.00003795  00000-0 -23608-3 0  9996
2 44941  53.0552 120.4985 0001421  54.0957 306.0164 15.06393034165748
1 44941U 20001AD  23008.44238737 -.00002852  00000-0 -17276-3 0  9991
2 44941  53.0531 117.2216 0001674  61.1850 298.9307 15.06377758165852
1 44941U 20001AD  23008.44238737 -.00002852  00000-0 -17276-3 0  9991
2 44941  53.0531 117.2216 0001674  61.1850 298.9307 15.06377758165852
1 44941U 20001AD  23008.70777261 -.00002417  00000-0 -14348-3 0  9994
2 44941  53.0525 116.0296 0001783  61.2909 298.8259 15.06378647165894
1 44941U 20001AD  23009.57027864  .00008328  00000-0  57724-3 0  9997
2 44941  53.0526 112.1593 0001878  55.0152 305.1013 15.06404663166022
1 44941U 20001AD  23009.70297639  .00014648  00000-0  99983-3 0  9996
2 44941  53.0538 111.5644 0001711  40.7932 319.3185 15.06414205166040
1 44941U 20001AD  23009.70297639  .00014648  00000-0  99983-3 0  9996
2 44941  53.0538 111.5644 0001711  40.7932 319.3185 15.06414205166040
1 44941U 20001AD  23010.30009683  .00003161  00000-0  23100-3 0  9990
2 44941  53.0534 108.8837 0001821  45.8176 314.2962 15.06403447166130
1 44941U 20001AD  23010.49913583  .00004495  00000-0  32042-3 0  9999
2 44941  53.0532 107.9901 0001876  46.8986 313.2160 15.06403793166166
1 44941U 20001AD  23010.69817653  .00003267  00000-0  23811-3 0  9992
2 44941  53.0532 107.0964 0001904  48.6523 311.4630 15.06401812166190
1 44941U 20001AD  23011.56066480  .00007760  00000-0  53875-3 0  9998
2 44941  53.0532 103.2239 0002112  51.3410 308.7768 15.06434517166325
1 44941U 20001AD  23011.56066480  .00007760  00000-0  53875-3 0  9998
2 44941  53.0532 103.2239 0002112  51.3410 308.7768 15.06434517166325
1 44941U 20001AD  23011.95875164 -.00001031  00000-0 -50290-4 0  9994
2 44941  53.0527 101.4373 0002041  58.3314 301.7874 15.06406810166381
1 44941U 20001AD  23012.62223499 -.00005699  00000-0 -36414-3 0  9992
2 44941  53.0533  98.4581 0002126  62.5013 297.6191 15.06380793166488
1 44941U 20001AD  23012.62223499 -.00005699  00000-0 -36414-3 0  9992
2 44941  53.0533  98.4581 0002126  62.5013 297.6191 15.06380793166488
1 44941U 20001AD  23013.48475251  .00012814  00000-0  87778-3 0  9996
2 44941  53.0524  94.5858 0002038  64.9015 295.2185 15.06391960166612
1 44941U 20001AD  23013.48475251  .00012814  00000-0  87778-3 0  9996
2 44941  53.0524  94.5858 0002038  64.9015 295.2185 15.06391960166612
1 44941U 20001AD  23014.61264707  .00009059  00000-0  62609-3 0  9997
2 44941  53.0528  89.5220 0002119  76.5198 283.6027 15.06409750166785
1 44941U 20001AD  23015.20977293  .00001855  00000-0  14342-3 0  9991
2 44941  53.0525  86.8415 0001939  81.6189 278.5020 15.06396703166873
1 44941U 20001AD  23015.47515989  .00005186  00000-0  36680-3 0  9990
2 44941  53.0524  85.6507 0001962  79.2096 280.9114 15.06402557166918
1 44941U 20001AD  23015.87324004  .00009184  00000-0  63451-3 0  9998
2 44941  53.0540  83.8641 0001708  78.0044 282.1137 15.06409512166976
1 44941U 20001AD  23016.53670216  .00019252  00000-0  13069-2 0  9997
2 44941  53.0537  80.8838 0001844  80.5689 279.5508 15.06426394167072
1 44941U 20001AD  23016.86844222 -.00002779  00000-0 -16772-3 0  9996
2 44941  53.0532  79.3930 0002064  82.9475 277.1749 15.06392321167126
1 44941U 20001AD  23016.86844222 -.00002779  00000-0 -16772-3 0  9996
2 44941  53.0532  79.3930 0002064  82.9475 277.1749 15.06392321167126
1 44941U 20001AD  23017.53192269 -.00002983  00000-0 -18156-3 0  9993
2 44941  53.0555  76.4190 0001869  99.8937 260.2263 15.06378887167225
1 44941U 20001AD  23017.53192269 -.00002983  00000-0 -18156-3 0  9993
2 44941  53.0555  76.4190 0001869  99.8937 260.2263 15.06378887167225
1 44941U 20001AD  23018.32808668  .00028331  00000-0  19122-2 0  9994
2 44941  53.0553  72.8447 0001827 102.2714 257.8479 15.06420263167344
1 44941U 20001AD  23018.39443222  .00036010  00000-0  24221-2 0  9991
2 44941  53.0540  72.5465 0001819 100.5537 259.5657 15.06429471167350
1 44941U 20001AD  23018.85885724  .00027838  00000-0  18795-2 0  9996
2 44941  53.0536  70.4618 0002168  82.5789 277.5446 15.06417362167428
1 44941U 20001AD  23018.85885724  .00027838  00000-0  18795-2 0  9996
2 44941  53.0536  70.4618 0002168  82.5789 277.5446 15.06417362167428
1 44941U 20001AD  23019.38962592  .00006937  00000-0  48387-3 0  9992
2 44941  53.0577  68.0786 0002441  86.8198 273.3070 15.06420415167506
1 44941U 20001AD  23019.52231693  .00008905  00000-0  61558-3 0  9991
2 44941  53.0520  67.4807 0001614  97.1076 263.0096 15.06422601167527
1 44941U 20001AD  23020.11944484  .00003943  00000-0  28344-3 0  9990
2 44941  53.0529  64.8036 0002002  76.2237 283.8974 15.06399485167618
1 44941U 20001AD  23020.38483329  .00003727  00000-0  26898-3 0  9997
2 44941  53.0538  63.6098 0001699  86.1001 274.0182 15.06397245167652
1 44941U 20001AD  23021.24734365  .00014604  00000-0  99713-3 0  9994
2 44941  53.0524  59.7365 0001483  86.4290 273.6869 15.06406273167787
1 44941U 20001AD  23021.38003571  .00017998  00000-0  12235-2 0  9999
2 44941  53.0531  59.1412 0001601  84.7317 275.3855 15.06418200167805
1 44941U 20001AD  23022.37523758  .00013446  00000-0  91949-3 0  9997
2 44941  53.0527  54.6726 0001543  81.1833 278.9331 15.06413510167950
1 44941U 20001AD  23022.77331948  .00006502  00000-0  45495-3 0  9999
2 44941  53.0544  52.8868 0001697  91.5976 268.5207 15.06402313168013
1 44941U 20001AD  23023.10505598  .00001016  00000-0  87095-4 0  9999
2 44941  53.0545  51.3987 0001578 100.1157 260.0010 15.06388528168061
1 44941U 20001AD  23023.37045741 -.00012879  00000-0 -84809-3 0  9997
2 44941  53.0549  50.2092 0002489 104.6894 255.4371 15.06359958168107
1 44941U 20001AD  23023.76856466 -.00014973  00000-0 -99021-3 0  9993
2 44941  53.0543  48.4217 0001980 105.0831 255.0377 15.06330923168169
1 44941U 20001AD  23024.23298776  .00007277  00000-0  50718-3 0  9997
2 44941  53.0539  46.3350 0002289 119.7407 240.3810 15.06381975168233
1 44941U 20001AD  23024.76375778  .00014064  00000-0  96087-3 0  9994
2 44941  53.0544  43.9513 0001858 101.0043 259.1155 15.06411278168313
1 44941U 20001AD  23025.36086584  .00023919  00000-0  16165-2 0  9992
2 44941  53.0538  41.2709 0002040 102.5739 257.5478 15.06461752168408
1 44941U 20001AD  23025.36086584  .00023919  00000-0  16165-2 0  9992
2 44941  53.0538  41.2709 0002040 102.5739 257.5478 15.06461752168408
1 44941U 20001AD  23026.09067704  .00082119  00000-0  54669-2 0  9994
2 44941  53.0546  37.9977 0002059  66.8059 293.3147 15.06407601168519
1 44941U 20001AD  23026.09067704  .00082119  00000-0  54669-2 0  9994
2 44941  53.0546  37.9977 0002059  66.8059 293.3147 15.06407601168519
1 44941U 20001AD  23026.82049850  .00052685  00000-0  35307-2 0  9990
2 44941  53.0550  34.7182 0002014 110.2660 249.8546 15.06387427168624
1 44941U 20001AD  23027.28493351  .00025019  00000-0  16931-2 0  9993
2 44941  53.0546  32.6326 0001572  86.2407 273.8761 15.06388101168698
1 44941U 20001AD  23027.41762646  .00037332  00000-0  25115-2 0  9999
2 44941  53.0545  32.0371 0001815  86.1688 273.9509 15.06406123168710
1 44941U 20001AD  23027.41762646  .00037332  00000-0  25115-2 0  9999
2 44941  53.0545  32.0371 0001815  86.1688 273.9509 15.06406123168710
1 44941U 20001AD  23028.21377419  .00021813  00000-0  14771-2 0  9991
2 44941  53.0544  28.4633 0001813  87.7583 272.3614 15.06440921168835
1 44941U 20001AD  23028.28011887  .00019220  00000-0  13042-2 0  9991
2 44941  53.0550  28.1651 0001830  86.8799 273.2399 15.06442277168844
1 44941U 20001AD  23029.27531531  .00010004  00000-0  68921-3 0  9992
2 44941  53.0548  23.6980 0001838  99.6302 260.4894 15.06417016168993
1 44941U 20001AD  23029.93878889  .00014748  00000-0  10068-2 0  9992
2 44941  53.0543  20.7198 0001765 101.2768 258.8419 15.06402930169097
1 44941U 20001AD  23030.33687077  .00002634  00000-0  19568-3 0  9991
2 44941  53.0538  18.9322 0001862  98.6713 261.4486 15.06397171169157
1 44941U 20001AD  23030.33687077  .00002634  00000-0  19568-3 0  9991
2 44941  53.0538  18.9322 0001862  98.6713 261.4486 15.06397171169157
1 44941U 20001AD  23030.60225876  .00002493  00000-0  18621-3 0  9998
2 44941  53.0542  17.7395 0002026  66.9241 293.1961 15.06395837169197
1 44941U 20001AD  23031.33207161  .00005788  00000-0  40710-3 0  9990
2 44941  53.0536  14.4622 0001770 103.0408 257.0779 15.06406105169300
